{"type":"FeatureCollection","features":[{"type":"Feature","properties":{"country_code":"id","country":"Indonesia","province_code":"id35","province":"Jawa Timur","regency_code":"id3509","regency":"Jember","district_code":"id3509720","district":"Sumbersari","village_code":"id3509720007","village":"Antirogo","source":"HDX-BPS-2020","date":"2019-12-20","valid_on":"2020-04-01"},"geometry":{"type":"MultiPolygon","coordinates":[[[[113.740733,-8.134822],[113.740611,-8.13479],[113.7405,-8.13476],[113.74039,-8.13479],[113.740298,-8.134834],[113.740246,-8.134858],[113.7402,-8.13488],[113.73986,-8.13512],[113.73944,-8.13543],[113.73929,-8.13562],[113.739249,-8.135707],[113.73906,-8.13611],[113.73897,-8.13644],[113.73895,-8.13687],[113.73905,-8.13738],[113.73911,-8.13787],[113.73911,-8.13822],[113.73904,-8.1384],[113.73889,-8.13849],[113.73871,-8.13848],[113.738706,-8.138476],[113.73853,-8.13833],[113.73823,-8.13782],[113.73782,-8.13735],[113.73744,-8.13703],[113.73725,-8.13696],[113.73709,-8.13701],[113.73691,-8.1372],[113.73678,-8.13751],[113.736732,-8.137726],[113.736725,-8.137753],[113.73669,-8.13791],[113.736619,-8.138344],[113.73661,-8.1384],[113.73652,-8.13873],[113.73635,-8.13895],[113.73619,-8.13906],[113.73586,-8.1391],[113.73533,-8.1391],[113.73519,-8.13921],[113.73495,-8.13968],[113.734889,-8.139838],[113.73466,-8.14043],[113.734581,-8.140693],[113.734391,-8.141322],[113.734377,-8.141368],[113.73437,-8.14139],[113.734188,-8.141884],[113.73406,-8.14223],[113.73389,-8.14282],[113.733843,-8.143029],[113.73375,-8.14344],[113.73372,-8.14357],[113.73357,-8.14435],[113.73348,-8.14479],[113.733446,-8.144901],[113.7334,-8.14505],[113.73328,-8.1452],[113.73305,-8.14528],[113.73277,-8.14521],[113.7324,-8.14505],[113.73205,-8.14464],[113.73191,-8.14441],[113.73178,-8.14388],[113.73159,-8.14348],[113.73139,-8.14336],[113.73106,-8.14343],[113.7308,-8.14366],[113.73063,-8.14397],[113.73058,-8.14423],[113.73069,-8.1446],[113.731,-8.14501],[113.7312,-8.14527],[113.7312,-8.14541],[113.7311,-8.14557],[113.73078,-8.14578],[113.73042,-8.14585],[113.72996,-8.14584],[113.72958,-8.14572],[113.72933,-8.14556],[113.72915,-8.14532],[113.729088,-8.145262],[113.72898,-8.14516],[113.728923,-8.145144],[113.728628,-8.145228],[113.728367,-8.145329],[113.72823,-8.14579],[113.728061,-8.146148],[113.72806,-8.14615],[113.72784,-8.14641],[113.72757,-8.14659],[113.727514,-8.146607],[113.727717,-8.146875],[113.727774,-8.147096],[113.727822,-8.147327],[113.727851,-8.147456],[113.728147,-8.147444],[113.728442,-8.147304],[113.728517,-8.147294],[113.728657,-8.14745],[113.728722,-8.147579],[113.728881,-8.147707],[113.729076,-8.14777],[113.728828,-8.148197],[113.728682,-8.148465],[113.728472,-8.148956],[113.728372,-8.149178],[113.72853,-8.149233],[113.728808,-8.149342],[113.729062,-8.149474],[113.729106,-8.149497],[113.730647,-8.150478],[113.730669,-8.150492],[113.730818,-8.150574],[113.731646,-8.151086],[113.731657,-8.151063],[113.73185,-8.151158],[113.732036,-8.151221],[113.732,-8.15136],[113.732375,-8.151531],[113.732386,-8.151536],[113.732399,-8.151542],[113.733078,-8.151916],[113.734111,-8.152527],[113.734,-8.152685],[113.733908,-8.152741],[113.733862,-8.152751],[113.733807,-8.152788],[113.733817,-8.152926],[113.73392,-8.153064],[113.733891,-8.153128],[113.733865,-8.153185],[113.733717,-8.153306],[113.733644,-8.153417],[113.733747,-8.153564],[113.733868,-8.153655],[113.733875,-8.153667],[113.733849,-8.153768],[113.733962,-8.153904],[113.733954,-8.154098],[113.733956,-8.154264],[113.733903,-8.154331],[113.733915,-8.15438],[113.73379,-8.154459],[113.733643,-8.154654],[113.733643,-8.154691],[113.733589,-8.154811],[113.73358,-8.15494],[113.733526,-8.155116],[113.733443,-8.155237],[113.733334,-8.155431],[113.733114,-8.15582],[113.732911,-8.155979],[113.732847,-8.156081],[113.732705,-8.156964],[113.732678,-8.157134],[113.732873,-8.157142],[113.732994,-8.157161],[113.733086,-8.157175],[113.732934,-8.157913],[113.732916,-8.158],[113.733129,-8.158036],[113.733249,-8.157989],[113.733481,-8.158098],[113.733657,-8.158097],[113.733889,-8.158151],[113.734122,-8.158269],[113.734316,-8.158268],[113.734566,-8.158238],[113.734788,-8.158098],[113.735019,-8.158014],[113.735259,-8.158003],[113.73551,-8.15802],[113.735695,-8.158037],[113.735807,-8.158138],[113.735854,-8.158257],[113.735854,-8.158276],[113.735781,-8.158387],[113.735782,-8.158526],[113.735792,-8.158692],[113.735904,-8.158793],[113.736155,-8.158883],[113.73647,-8.15889],[113.736627,-8.158806],[113.736684,-8.158743],[113.73671,-8.15876],[113.73665,-8.15886],[113.73661,-8.15892],[113.73656,-8.15897],[113.73642,-8.15906],[113.73634,-8.15912],[113.73624,-8.15919],[113.73617,-8.15926],[113.736132,-8.159314],[113.73612,-8.15933],[113.736,-8.15948],[113.73597,-8.15953],[113.735842,-8.159744],[113.73567,-8.16003],[113.73563,-8.1601],[113.73552,-8.16031],[113.73544,-8.16047],[113.735355,-8.16068],[113.73521,-8.16104],[113.73498,-8.16133],[113.73483,-8.16153],[113.73457,-8.16186],[113.7345,-8.161952],[113.735024,-8.16234],[113.734848,-8.162805],[113.734527,-8.163358],[113.734536,-8.163362],[113.734508,-8.163419],[113.734724,-8.163485],[113.735083,-8.163679],[113.735375,-8.163874],[113.735829,-8.164198],[113.736093,-8.164459],[113.736147,-8.164574],[113.736152,-8.164572],[113.736354,-8.164736],[113.736368,-8.164747],[113.736529,-8.164886],[113.736689,-8.165007],[113.736859,-8.165081],[113.737056,-8.16508],[113.737198,-8.165144],[113.737236,-8.165181],[113.737462,-8.165302],[113.737735,-8.165365],[113.737989,-8.165326],[113.738157,-8.165213],[113.738213,-8.165147],[113.738277,-8.164978],[113.738349,-8.164939],[113.738524,-8.164974],[113.738944,-8.164957],[113.739294,-8.165054],[113.739357,-8.165071],[113.73932,-8.16522],[113.73928,-8.16562],[113.739378,-8.165784],[113.73944,-8.16589],[113.73979,-8.16608],[113.74005,-8.16622],[113.74037,-8.16641],[113.74052,-8.1665],[113.7406,-8.16655],[113.74081,-8.16668],[113.741056,-8.166877],[113.74121,-8.167],[113.74141,-8.16698],[113.74181,-8.16695],[113.74198,-8.16697],[113.74203,-8.167],[113.74215,-8.16707],[113.74242,-8.16725],[113.7428,-8.16744],[113.74295,-8.1675],[113.74332,-8.16766],[113.74368,-8.16796],[113.74388,-8.16797],[113.74413,-8.16794],[113.74429,-8.16786],[113.74453,-8.16774],[113.74459,-8.16771],[113.74478,-8.16758],[113.74545,-8.16754],[113.74586,-8.1675],[113.74601,-8.16747],[113.746183,-8.167436],[113.746502,-8.167373],[113.746501,-8.167199],[113.746599,-8.166708],[113.746768,-8.166218],[113.746726,-8.166217],[113.746952,-8.165508],[113.747154,-8.165008],[113.747123,-8.165002],[113.747749,-8.163096],[113.747957,-8.162464],[113.748059,-8.162155],[113.748354,-8.161514],[113.748286,-8.161504],[113.748469,-8.160781],[113.748652,-8.160045],[113.748705,-8.159899],[113.748752,-8.15977],[113.748836,-8.159481],[113.748993,-8.159119],[113.749021,-8.158903],[113.749092,-8.158686],[113.749133,-8.158426],[113.749219,-8.158252],[113.749232,-8.158065],[113.749186,-8.157748],[113.749214,-8.157502],[113.749198,-8.157315],[113.749196,-8.157099],[113.749181,-8.156983],[113.749166,-8.15681],[113.749165,-8.156695],[113.749167,-8.156647],[113.749178,-8.156464],[113.749191,-8.156262],[113.749189,-8.156017],[113.749173,-8.155844],[113.749181,-8.15584],[113.749202,-8.155829],[113.749303,-8.155713],[113.749432,-8.155539],[113.749678,-8.155538],[113.749795,-8.15571],[113.750201,-8.15588],[113.75052,-8.155849],[113.750794,-8.155732],[113.751039,-8.155557],[113.751328,-8.155526],[113.751414,-8.155367],[113.751499,-8.155193],[113.751804,-8.15522],[113.751891,-8.155237],[113.75204,-8.15501],[113.75225,-8.15494],[113.752438,-8.154914],[113.75254,-8.1549],[113.75262,-8.15491],[113.75287,-8.15488],[113.75312,-8.15481],[113.75333,-8.15474],[113.75359,-8.15474],[113.75392,-8.15475],[113.75409,-8.15469],[113.75412,-8.15462],[113.75411,-8.15446],[113.754095,-8.154451],[113.75398,-8.15438],[113.75344,-8.15409],[113.75331,-8.1539],[113.7533,-8.15383],[113.75329,-8.15377],[113.75328,-8.15371],[113.75318,-8.15347],[113.75324,-8.15325],[113.75339,-8.15306],[113.75358,-8.15295],[113.753622,-8.152918],[113.75374,-8.15283],[113.75378,-8.15268],[113.75382,-8.15209],[113.75387,-8.15193],[113.75406,-8.15177],[113.75413,-8.15175],[113.75422,-8.15172],[113.75432,-8.15175],[113.75441,-8.15182],[113.75467,-8.15206],[113.75485,-8.15211],[113.75495,-8.15207],[113.75503,-8.15194],[113.75517,-8.15161],[113.75525,-8.15135],[113.75549,-8.15108],[113.75559,-8.15104],[113.75572,-8.15108],[113.75589,-8.15122],[113.75602,-8.15141],[113.75613,-8.15152],[113.75629,-8.15156],[113.75638,-8.15151],[113.75643,-8.15127],[113.75649,-8.15084],[113.75662,-8.15068],[113.75689,-8.15061],[113.7571,-8.15064],[113.75743,-8.15064],[113.75771,-8.1506],[113.75793,-8.1505],[113.75815,-8.15022],[113.75823,-8.15014],[113.75876,-8.15025],[113.758704,-8.149981],[113.758763,-8.14997],[113.758837,-8.149895],[113.758872,-8.149673],[113.758797,-8.149563],[113.758629,-8.149423],[113.759184,-8.148329],[113.759197,-8.148333],[113.759288,-8.148203],[113.759371,-8.148082],[113.759342,-8.147944],[113.759351,-8.147852],[113.759368,-8.147685],[113.759395,-8.147528],[113.75944,-8.14739],[113.75955,-8.147232],[113.759596,-8.147102],[113.759715,-8.146945],[113.759714,-8.146797],[113.759722,-8.146729],[113.759732,-8.146649],[113.759841,-8.146362],[113.759886,-8.146187],[113.76007,-8.145954],[113.759958,-8.145918],[113.759873,-8.145697],[113.759679,-8.145754],[113.759494,-8.145728],[113.759104,-8.145647],[113.758825,-8.145529],[113.758482,-8.145439],[113.75813,-8.145405],[113.757777,-8.145296],[113.75748,-8.145169],[113.757431,-8.145153],[113.757183,-8.145069],[113.756997,-8.145015],[113.756774,-8.144943],[113.756773,-8.144851],[113.756736,-8.144777],[113.756551,-8.144797],[113.75642,-8.144715],[113.756336,-8.144623],[113.756317,-8.144522],[113.756205,-8.144319],[113.756204,-8.144255],[113.756232,-8.144208],[113.756222,-8.144088],[113.756221,-8.143959],[113.756211,-8.143913],[113.756044,-8.143831],[113.755896,-8.143832],[113.755739,-8.143944],[113.755534,-8.143844],[113.755376,-8.143771],[113.755237,-8.143698],[113.75507,-8.143616],[113.754904,-8.143553],[113.75488,-8.1436],[113.754809,-8.143736],[113.754617,-8.14373],[113.754422,-8.143759],[113.754182,-8.143825],[113.754023,-8.143913],[113.75383,-8.14373],[113.753806,-8.143706],[113.7537,-8.1436],[113.75322,-8.14317],[113.75241,-8.14269],[113.75221,-8.14259],[113.7517,-8.14232],[113.75119,-8.14202],[113.75105,-8.14191],[113.75076,-8.14172],[113.75052,-8.14155],[113.750357,-8.141446],[113.75,-8.14122],[113.74908,-8.14077],[113.74835,-8.14044],[113.74829,-8.14041],[113.748225,-8.140376],[113.748266,-8.140321],[113.748377,-8.140218],[113.748488,-8.140208],[113.74871,-8.140152],[113.748885,-8.140045],[113.748894,-8.140039],[113.748689,-8.139921],[113.748531,-8.139839],[113.748382,-8.139711],[113.748215,-8.139555],[113.748019,-8.139362],[113.747647,-8.139263],[113.747586,-8.139222],[113.747322,-8.139044],[113.747154,-8.138944],[113.747117,-8.138925],[113.746523,-8.13868],[113.74616,-8.138424],[113.745862,-8.138269],[113.745826,-8.138248],[113.745432,-8.138019],[113.745379,-8.137988],[113.74536,-8.137977],[113.745034,-8.137767],[113.744646,-8.137486],[113.744606,-8.137456],[113.74456,-8.137503],[113.744505,-8.137614],[113.744247,-8.137865],[113.743951,-8.137926],[113.74354,-8.13777],[113.74318,-8.137],[113.74287,-8.13666],[113.74248,-8.13655],[113.742466,-8.136556],[113.74207,-8.13673],[113.74178,-8.13675],[113.74163,-8.13658],[113.74136,-8.13601],[113.74112,-8.13542],[113.74096,-8.13503],[113.74095,-8.135018],[113.7408,-8.13484],[113.740733,-8.134822]]]]}},{"type":"Feature","properties":{"country_code":"id","country":"Indonesia","province_code":"id35","province":"Jawa Timur","regency_code":"id3509","regency":"Jember","district_code":"id3509720","district":"Sumbersari","village_code":"id3509720003","village":"Karangrejo","source":"HDX-BPS-2020","date":"2019-12-20","valid_on":"2020-04-01"},"geometry":{"type":"MultiPolygon","coordinates":[[[[113.74368,-8.16796],[113.74332,-8.16766],[113.74295,-8.1675],[113.7428,-8.16744],[113.74242,-8.16725],[113.74215,-8.16707],[113.74203,-8.167],[113.74198,-8.16697],[113.74181,-8.16695],[113.74141,-8.16698],[113.74121,-8.167],[113.741056,-8.166877],[113.74081,-8.16668],[113.7406,-8.16655],[113.74052,-8.1665],[113.74037,-8.16641],[113.74005,-8.16622],[113.73979,-8.16608],[113.73944,-8.16589],[113.739378,-8.165784],[113.73928,-8.16562],[113.73932,-8.16522],[113.739357,-8.165071],[113.739294,-8.165054],[113.738944,-8.164957],[113.738524,-8.164974],[113.738349,-8.164939],[113.738277,-8.164978],[113.738213,-8.165147],[113.738157,-8.165213],[113.737989,-8.165326],[113.737735,-8.165365],[113.737462,-8.165302],[113.737236,-8.165181],[113.737198,-8.165144],[113.737056,-8.16508],[113.736859,-8.165081],[113.736689,-8.165007],[113.736529,-8.164886],[113.736368,-8.164747],[113.736354,-8.164736],[113.736152,-8.164572],[113.736147,-8.164574],[113.736093,-8.164459],[113.735829,-8.164198],[113.735375,-8.163874],[113.735083,-8.163679],[113.734724,-8.163485],[113.734508,-8.163419],[113.734408,-8.163621],[113.734243,-8.163853],[113.734197,-8.1639],[113.734254,-8.164038],[113.734301,-8.164194],[113.734243,-8.164438],[113.734223,-8.164525],[113.73422,-8.164536],[113.733978,-8.164363],[113.733699,-8.164226],[113.733551,-8.164181],[113.733448,-8.164134],[113.733425,-8.164186],[113.733387,-8.164175],[113.733245,-8.164137],[113.732929,-8.164111],[113.732726,-8.16415],[113.732467,-8.164179],[113.732346,-8.16418],[113.732333,-8.164334],[113.732316,-8.164512],[113.732298,-8.164709],[113.732271,-8.164878],[113.732197,-8.165066],[113.732197,-8.165084],[113.732029,-8.165226],[113.731861,-8.165386],[113.731796,-8.165546],[113.731723,-8.165771],[113.731704,-8.165809],[113.73164,-8.166015],[113.731632,-8.16624],[113.731633,-8.166412],[113.731634,-8.166502],[113.731635,-8.166671],[113.73163,-8.166681],[113.731579,-8.166784],[113.731486,-8.166831],[113.73125,-8.166701],[113.731193,-8.166655],[113.731052,-8.166684],[113.730921,-8.16676],[113.730866,-8.166873],[113.730942,-8.16705],[113.730989,-8.167097],[113.731226,-8.167329],[113.731358,-8.167487],[113.731369,-8.167703],[113.731212,-8.168031],[113.731025,-8.168239],[113.730698,-8.168513],[113.730539,-8.168673],[113.730536,-8.168672],[113.73037,-8.168655],[113.730342,-8.168665],[113.730219,-8.168609],[113.730172,-8.168572],[113.730077,-8.168423],[113.73002,-8.16833],[113.729992,-8.168293],[113.729887,-8.168162],[113.729717,-8.168042],[113.72951,-8.167977],[113.729473,-8.167968],[113.729343,-8.168213],[113.72905,-8.167981],[113.729036,-8.167981],[113.728965,-8.167981],[113.728805,-8.167907],[113.728673,-8.167861],[113.728589,-8.16789],[113.728458,-8.167994],[113.728327,-8.16806],[113.728157,-8.167987],[113.728044,-8.16794],[113.727808,-8.167867],[113.727667,-8.167877],[113.72747,-8.167898],[113.727225,-8.167777],[113.72697,-8.167639],[113.726698,-8.167484],[113.72668,-8.16751],[113.72638,-8.16774],[113.725771,-8.168054],[113.725734,-8.168073],[113.72572,-8.16808],[113.725643,-8.168131],[113.7256,-8.16816],[113.72535,-8.16835],[113.7251,-8.16864],[113.72494,-8.16898],[113.724922,-8.169105],[113.72487,-8.16947],[113.72497,-8.16998],[113.725011,-8.170225],[113.724958,-8.170218],[113.724742,-8.17022],[113.724648,-8.170342],[113.724649,-8.170501],[113.724641,-8.170614],[113.724406,-8.170662],[113.724275,-8.170766],[113.724163,-8.170823],[113.724106,-8.170814],[113.724116,-8.170861],[113.724142,-8.170876],[113.724296,-8.170972],[113.724275,-8.171017],[113.72424,-8.171094],[113.724165,-8.171179],[113.724147,-8.171207],[113.724204,-8.1713],[113.724327,-8.171421],[113.724337,-8.171543],[113.724357,-8.171674],[113.724258,-8.1718],[113.724254,-8.171806],[113.723991,-8.171807],[113.723802,-8.171687],[113.723708,-8.171622],[113.723557,-8.171539],[113.723388,-8.171521],[113.7232,-8.171532],[113.723078,-8.17157],[113.722919,-8.171629],[113.722871,-8.171646],[113.722825,-8.171693],[113.722817,-8.171871],[113.722809,-8.172115],[113.722839,-8.172368],[113.722879,-8.172705],[113.723041,-8.173041],[113.723063,-8.173056],[113.723211,-8.173161],[113.723333,-8.173235],[113.723513,-8.173431],[113.723769,-8.173672],[113.72392,-8.173803],[113.724175,-8.173941],[113.724304,-8.174011],[113.724366,-8.174161],[113.72448,-8.17444],[113.724787,-8.174811],[113.72486,-8.1749],[113.72518,-8.17543],[113.725394,-8.175916],[113.725354,-8.17605],[113.725356,-8.176265],[113.72531,-8.176471],[113.725302,-8.176612],[113.725303,-8.176743],[113.72533,-8.176769],[113.725416,-8.176855],[113.725529,-8.176882],[113.725584,-8.176974],[113.725746,-8.17771],[113.72577,-8.17782],[113.72577,-8.177841],[113.725818,-8.177891],[113.726018,-8.178237],[113.726137,-8.178452],[113.726189,-8.178545],[113.726213,-8.178622],[113.726247,-8.178731],[113.726331,-8.178835],[113.726436,-8.178964],[113.726569,-8.179113],[113.72673,-8.179309],[113.726743,-8.179385],[113.726789,-8.179646],[113.726829,-8.180085],[113.727009,-8.180178],[113.727168,-8.180195],[113.727181,-8.180617],[113.727174,-8.180833],[113.727173,-8.18087],[113.726139,-8.180783],[113.726134,-8.180796],[113.725964,-8.181309],[113.725832,-8.18131],[113.72583,-8.181309],[113.725512,-8.181293],[113.725371,-8.1812],[113.725321,-8.181201],[113.72522,-8.181201],[113.724873,-8.18125],[113.724432,-8.181328],[113.724141,-8.181396],[113.723897,-8.181463],[113.72371,-8.181586],[113.723438,-8.181756],[113.723101,-8.181852],[113.723007,-8.181816],[113.722959,-8.181797],[113.722508,-8.181791],[113.722131,-8.18169],[113.722086,-8.181681],[113.721965,-8.181655],[113.721898,-8.18164],[113.72186,-8.181632],[113.721836,-8.181657],[113.721784,-8.181712],[113.721892,-8.181894],[113.722019,-8.182144],[113.722006,-8.182269],[113.721464,-8.182537],[113.721075,-8.18279],[113.720671,-8.182959],[113.720409,-8.182882],[113.720382,-8.182901],[113.7199,-8.18324],[113.71974,-8.18334],[113.719461,-8.183514],[113.71942,-8.18354],[113.719415,-8.183545],[113.71937,-8.18359],[113.719361,-8.183596],[113.719445,-8.183641],[113.719256,-8.184663],[113.719255,-8.184669],[113.719181,-8.185128],[113.719183,-8.185444],[113.719085,-8.185911],[113.719056,-8.186045],[113.719053,-8.186054],[113.718997,-8.186205],[113.719,-8.18622],[113.719028,-8.186369],[113.71904,-8.18643],[113.71912,-8.18697],[113.719135,-8.187039],[113.71924,-8.18753],[113.71939,-8.18817],[113.71954,-8.18859],[113.71962,-8.18866],[113.71969,-8.18874],[113.7199,-8.18889],[113.719923,-8.188911],[113.719989,-8.188891],[113.720398,-8.188722],[113.720919,-8.188641],[113.720909,-8.188692],[113.720883,-8.188817],[113.720906,-8.188813],[113.720907,-8.18891],[113.720894,-8.189049],[113.720881,-8.189214],[113.720881,-8.189216],[113.720923,-8.189216],[113.721077,-8.189284],[113.721231,-8.189353],[113.721343,-8.189408],[113.721497,-8.189476],[113.721679,-8.189558],[113.722,-8.189542],[113.722081,-8.189542],[113.722363,-8.18954],[113.722595,-8.189518],[113.7226,-8.18953],[113.722604,-8.189566],[113.722795,-8.189565],[113.723005,-8.189619],[113.723107,-8.189658],[113.723215,-8.189701],[113.723373,-8.189787],[113.723467,-8.189838],[113.723858,-8.189836],[113.723776,-8.190003],[113.724111,-8.190056],[113.724165,-8.189861],[113.724263,-8.189861],[113.724333,-8.189916],[113.724515,-8.189942],[113.724892,-8.189982],[113.724892,-8.190006],[113.724892,-8.190009],[113.724782,-8.190177],[113.724727,-8.190303],[113.724769,-8.190427],[113.724714,-8.190553],[113.724674,-8.190706],[113.724522,-8.191041],[113.724481,-8.191125],[113.724427,-8.191334],[113.7244,-8.191515],[113.724359,-8.19164],[113.723989,-8.192616],[113.72399,-8.192755],[113.723977,-8.192964],[113.723978,-8.193103],[113.723993,-8.193214],[113.723869,-8.193437],[113.724068,-8.194034],[113.724125,-8.194159],[113.724084,-8.194368],[113.724044,-8.194535],[113.723976,-8.194841],[113.723907,-8.195009],[113.723849,-8.195098],[113.723826,-8.195132],[113.723797,-8.195176],[113.723756,-8.195357],[113.723716,-8.195636],[113.723634,-8.195887],[113.723564,-8.1961],[113.7236,-8.19611],[113.723638,-8.196121],[113.723639,-8.196236],[113.72364,-8.196413],[113.723601,-8.196561],[113.723596,-8.196732],[113.723569,-8.196875],[113.72357,-8.197011],[113.723576,-8.197073],[113.723576,-8.197074],[113.723588,-8.197125],[113.723617,-8.197176],[113.723686,-8.197261],[113.723715,-8.19738],[113.72379,-8.197488],[113.723865,-8.197596],[113.723911,-8.19763],[113.723986,-8.197686],[113.724003,-8.19772],[113.723958,-8.197778],[113.723867,-8.197818],[113.723793,-8.197893],[113.723731,-8.197978],[113.723702,-8.198041],[113.72372,-8.198115],[113.723721,-8.198189],[113.723721,-8.198269],[113.723727,-8.19844],[113.723728,-8.198497],[113.723729,-8.198605],[113.723741,-8.198719],[113.723754,-8.198856],[113.723754,-8.198952],[113.723766,-8.198952],[113.723829,-8.198963],[113.723915,-8.199003],[113.723938,-8.199048],[113.72395,-8.199093],[113.724036,-8.199138],[113.724133,-8.199155],[113.724225,-8.19916],[113.724299,-8.199142],[113.724367,-8.199096],[113.724395,-8.199016],[113.724372,-8.198943],[113.724446,-8.198896],[113.724543,-8.198901],[113.724692,-8.198975],[113.724784,-8.19898],[113.72492,-8.198905],[113.724972,-8.198864],[113.725092,-8.198881],[113.725166,-8.198892],[113.725183,-8.198887],[113.725258,-8.198908],[113.725349,-8.198925],[113.725434,-8.19881],[113.725497,-8.198838],[113.725527,-8.198997],[113.725585,-8.199128],[113.725694,-8.199167],[113.725791,-8.199166],[113.725872,-8.199274],[113.725925,-8.199513],[113.725969,-8.199646],[113.726102,-8.199736],[113.726253,-8.199838],[113.72627,-8.19985],[113.72639,-8.19975],[113.72677,-8.19963],[113.726966,-8.199569],[113.726967,-8.199648],[113.726979,-8.199745],[113.726991,-8.199813],[113.727031,-8.199825],[113.727242,-8.199823],[113.727414,-8.199816],[113.727517,-8.19981],[113.727528,-8.199753],[113.727533,-8.199639],[113.727537,-8.199388],[113.727628,-8.19941],[113.727765,-8.199409],[113.727954,-8.199442],[113.728137,-8.199458],[113.728137,-8.199435],[113.728153,-8.199225],[113.728164,-8.199167],[113.728209,-8.199122],[113.728363,-8.199086],[113.728563,-8.199028],[113.728706,-8.198953],[113.728797,-8.198895],[113.728945,-8.198849],[113.729042,-8.198888],[113.729369,-8.198954],[113.729981,-8.199041],[113.73001,-8.198318],[113.729978,-8.198311],[113.729964,-8.198307],[113.729988,-8.198133],[113.730179,-8.197688],[113.730266,-8.197498],[113.730268,-8.197494],[113.730334,-8.197472],[113.73045,-8.197458],[113.730592,-8.197328],[113.730655,-8.197186],[113.730784,-8.197108],[113.730965,-8.197158],[113.73116,-8.19726],[113.731341,-8.19731],[113.73156,-8.197193],[113.731701,-8.19705],[113.731644,-8.195581],[113.73166,-8.19557],[113.73177,-8.19541],[113.731953,-8.195139],[113.732,-8.19507],[113.73247,-8.19431],[113.732689,-8.193971],[113.732715,-8.193931],[113.73287,-8.19369],[113.73365,-8.19225],[113.734019,-8.191395],[113.734025,-8.191086],[113.734073,-8.19048],[113.734148,-8.190055],[113.734145,-8.18963],[113.734142,-8.18927],[113.734133,-8.18917],[113.73413,-8.18914],[113.7341,-8.188819],[113.734306,-8.188612],[113.734421,-8.188457],[113.734574,-8.188108],[113.734599,-8.188018],[113.734598,-8.187876],[113.734546,-8.187812],[113.734609,-8.187631],[113.734583,-8.187541],[113.734595,-8.187451],[113.734491,-8.187323],[113.734451,-8.187156],[113.734539,-8.186808],[113.734502,-8.186571],[113.734498,-8.18655],[113.734775,-8.186471],[113.734821,-8.186458],[113.735078,-8.186315],[113.735103,-8.186173],[113.735128,-8.186031],[113.735407,-8.185727],[113.7354,-8.18558],[113.73538,-8.18514],[113.73554,-8.18423],[113.73575,-8.18361],[113.735789,-8.183581],[113.73594,-8.18347],[113.73611,-8.18328],[113.73621,-8.183],[113.736217,-8.182983],[113.736205,-8.182895],[113.736306,-8.18256],[113.736447,-8.182417],[113.736602,-8.182403],[113.736705,-8.182312],[113.736976,-8.18222],[113.737156,-8.182116],[113.737275,-8.182115],[113.737291,-8.182098],[113.73817,-8.18119],[113.73839,-8.18094],[113.738542,-8.180359],[113.73855,-8.18033],[113.738578,-8.18033],[113.738863,-8.180328],[113.73912,-8.180197],[113.739262,-8.180132],[113.739364,-8.179925],[113.739401,-8.179745],[113.739478,-8.179577],[113.739464,-8.179474],[113.739592,-8.179318],[113.739733,-8.17915],[113.73981,-8.179046],[113.739861,-8.178943],[113.740016,-8.178891],[113.740041,-8.178787],[113.740092,-8.178761],[113.740364,-8.178785],[113.740546,-8.178926],[113.740713,-8.178834],[113.740789,-8.178551],[113.740762,-8.17837],[113.740866,-8.178434],[113.74099,-8.178452],[113.741034,-8.178459],[113.74115,-8.178381],[113.741174,-8.178187],[113.741031,-8.178034],[113.740861,-8.177765],[113.740757,-8.177649],[113.740707,-8.177487],[113.740732,-8.177474],[113.74074,-8.17747],[113.740796,-8.177428],[113.74097,-8.1773],[113.74116,-8.17706],[113.741309,-8.176771],[113.74128,-8.17668],[113.741279,-8.176526],[113.74146,-8.176473],[113.741807,-8.176303],[113.742141,-8.176005],[113.742286,-8.17584],[113.742346,-8.175772],[113.742436,-8.175681],[113.74272,-8.175432],[113.74276,-8.17531],[113.74276,-8.1751],[113.74276,-8.17503],[113.742725,-8.173796],[113.74272,-8.17364],[113.742691,-8.173312],[113.74269,-8.1733],[113.74275,-8.17271],[113.74276,-8.17248],[113.74271,-8.1723],[113.74253,-8.17205],[113.7425,-8.172],[113.74241,-8.17184],[113.7423,-8.17165],[113.74219,-8.1714],[113.74212,-8.17123],[113.74208,-8.17103],[113.742102,-8.170904],[113.742028,-8.170778],[113.742129,-8.170468],[113.742386,-8.17017],[113.742455,-8.170118],[113.74246,-8.17009],[113.74248,-8.16999],[113.74247,-8.16982],[113.74237,-8.16937],[113.74237,-8.16914],[113.74241,-8.16904],[113.74247,-8.16886],[113.74269,-8.16849],[113.74287,-8.16828],[113.74319,-8.16806],[113.74343,-8.16796],[113.74361,-8.16795],[113.74368,-8.16796]]]]}},{"type":"Feature","properties":{"country_code":"id","country":"Indonesia","province_code":"id35","province":"Jawa Timur","regency_code":"id3509","regency":"Jember","district_code":"id3509720","district":"Sumbersari","village_code":"id3509720004","village":"Kebonsari","source":"HDX-BPS-2020","date":"2019-12-20","valid_on":"2020-04-01"},"geometry":{"type":"MultiPolygon","coordinates":[[[[113.719415,-8.183545],[113.718381,-8.18331],[113.718003,-8.183105],[113.717898,-8.183047],[113.717046,-8.182698],[113.71649,-8.18247],[113.71598,-8.182261],[113.715215,-8.181947],[113.715207,-8.181966],[113.714766,-8.181792],[113.714268,-8.181596],[113.713713,-8.181377],[113.712724,-8.180987],[113.711973,-8.180691],[113.711835,-8.180637],[113.710958,-8.180291],[113.710225,-8.180002],[113.709242,-8.179615],[113.709204,-8.179599],[113.707099,-8.17877],[113.706533,-8.178547],[113.706017,-8.178343],[113.705682,-8.178279],[113.705388,-8.178266],[113.704866,-8.178244],[113.704642,-8.178254],[113.704668,-8.177329],[113.70451,-8.17739],[113.70391,-8.17764],[113.703875,-8.177652],[113.703466,-8.177791],[113.70306,-8.17793],[113.702249,-8.17826],[113.70193,-8.17839],[113.701712,-8.178479],[113.701504,-8.178565],[113.70103,-8.17876],[113.700457,-8.179011],[113.70023,-8.17911],[113.700104,-8.179194],[113.69984,-8.17937],[113.699675,-8.179511],[113.69957,-8.1796],[113.698978,-8.180066],[113.69877,-8.18023],[113.69808,-8.1806],[113.69776,-8.1809],[113.69745,-8.18128],[113.69708,-8.18179],[113.69669,-8.18209],[113.69647,-8.18225],[113.69621,-8.18233],[113.69586,-8.18235],[113.695782,-8.18235],[113.69552,-8.18235],[113.69538,-8.18237],[113.69509,-8.18253],[113.694824,-8.182682],[113.69481,-8.18269],[113.69466,-8.18269],[113.69448,-8.18259],[113.69424,-8.18228],[113.694143,-8.182215],[113.694,-8.18212],[113.6937,-8.18205],[113.69349,-8.18205],[113.69335,-8.182111],[113.69317,-8.18219],[113.69303,-8.18237],[113.693042,-8.182457],[113.6931,-8.18286],[113.693062,-8.183272],[113.69306,-8.18329],[113.6929,-8.18349],[113.69257,-8.18369],[113.69207,-8.18402],[113.69215,-8.18431],[113.69232,-8.18492],[113.692434,-8.185097],[113.69261,-8.18537],[113.69277,-8.18549],[113.69302,-8.18585],[113.693035,-8.185872],[113.693211,-8.185882],[113.693582,-8.185938],[113.693763,-8.185951],[113.693763,-8.185978],[113.693919,-8.185953],[113.693916,-8.185991],[113.693888,-8.186372],[113.693889,-8.186485],[113.69389,-8.186677],[113.693806,-8.186734],[113.69378,-8.18682],[113.69362,-8.18723],[113.693481,-8.187605],[113.693418,-8.187776],[113.69335,-8.18796],[113.69321,-8.18826],[113.693202,-8.188271],[113.693067,-8.188114],[113.692895,-8.187944],[113.692842,-8.187893],[113.692776,-8.188045],[113.692654,-8.188323],[113.692543,-8.188617],[113.692498,-8.188736],[113.692277,-8.189071],[113.692009,-8.189549],[113.691867,-8.189804],[113.691694,-8.190059],[113.691701,-8.190128],[113.691711,-8.190234],[113.691982,-8.190296],[113.692239,-8.190387],[113.692211,-8.190452],[113.692419,-8.19054],[113.693181,-8.190897],[113.693875,-8.191186],[113.694761,-8.191418],[113.695166,-8.191442],[113.695612,-8.191468],[113.69601,-8.191466],[113.696452,-8.191463],[113.696964,-8.191467],[113.6972,-8.191469],[113.697263,-8.191469],[113.698233,-8.191474],[113.698788,-8.19147],[113.69923,-8.191442],[113.699389,-8.191432],[113.700104,-8.191518],[113.700717,-8.19157],[113.700826,-8.191588],[113.701455,-8.191689],[113.701656,-8.191697],[113.701705,-8.191699],[113.701621,-8.19187],[113.70164,-8.191943],[113.701439,-8.192616],[113.70105,-8.193805],[113.700628,-8.195119],[113.700607,-8.195183],[113.700314,-8.196077],[113.700306,-8.196104],[113.700328,-8.196108],[113.701123,-8.196246],[113.701736,-8.196355],[113.702474,-8.196463],[113.702589,-8.196476],[113.703314,-8.196559],[113.703871,-8.196612],[113.704438,-8.19663],[113.705366,-8.196537],[113.705401,-8.196534],[113.708534,-8.196874],[113.709049,-8.196969],[113.710317,-8.197201],[113.710318,-8.19715],[113.710911,-8.197215],[113.71102,-8.197117],[113.711279,-8.196901],[113.711471,-8.196708],[113.711584,-8.196628],[113.711708,-8.196593],[113.711787,-8.196513],[113.711901,-8.196614],[113.71212,-8.196453],[113.71215,-8.196432],[113.712069,-8.196274],[113.7123,-8.19613],[113.71233,-8.19577],[113.712305,-8.19577],[113.712371,-8.195628],[113.712403,-8.195334],[113.712469,-8.195051],[113.712482,-8.195033],[113.71255,-8.19494],[113.712627,-8.194835],[113.712682,-8.194654],[113.712737,-8.194439],[113.712792,-8.194212],[113.712871,-8.19411],[113.712939,-8.194053],[113.712934,-8.19404],[113.712893,-8.193941],[113.712891,-8.193715],[113.712936,-8.193579],[113.713026,-8.193465],[113.713183,-8.193272],[113.71319,-8.193255],[113.713203,-8.193226],[113.713228,-8.19317],[113.713363,-8.193056],[113.713533,-8.19301],[113.713782,-8.192997],[113.714021,-8.192984],[113.714076,-8.192836],[113.714098,-8.192723],[113.714245,-8.192632],[113.714404,-8.192597],[113.714664,-8.192595],[113.71488,-8.192594],[113.715073,-8.192592],[113.715185,-8.192479],[113.71523,-8.192399],[113.715219,-8.192396],[113.715377,-8.19226],[113.715625,-8.192046],[113.715974,-8.191727],[113.716173,-8.191542],[113.716214,-8.191504],[113.71623,-8.19151],[113.7163,-8.19158],[113.71716,-8.19118],[113.7176,-8.19097],[113.71796,-8.19075],[113.71824,-8.19066],[113.7185,-8.19054],[113.71897,-8.19017],[113.7196,-8.18942],[113.71981,-8.18914],[113.71994,-8.18904],[113.72002,-8.189],[113.719923,-8.188911],[113.7199,-8.18889],[113.71969,-8.18874],[113.71962,-8.18866],[113.71954,-8.18859],[113.71939,-8.18817],[113.71924,-8.18753],[113.719135,-8.187039],[113.71912,-8.18697],[113.71904,-8.18643],[113.719028,-8.186369],[113.719,-8.18622],[113.718997,-8.186205],[113.719053,-8.186054],[113.719056,-8.186045],[113.719085,-8.185911],[113.719183,-8.185444],[113.719181,-8.185128],[113.719255,-8.184669],[113.719256,-8.184663],[113.719445,-8.183641],[113.719361,-8.183596],[113.71937,-8.18359],[113.719415,-8.183545]]]]}},{"type":"Feature","properties":{"country_code":"id","country":"Indonesia","province_code":"id35","province":"Jawa Timur","regency_code":"id3509","regency":"Jember","district_code":"id3509720","district":"Sumbersari","village_code":"id3509720001","village":"Keranjingan","source":"HDX-BPS-2020","date":"2019-12-20","valid_on":"2020-04-01"},"geometry":{"type":"MultiPolygon","coordinates":[[[[113.73001,-8.198318],[113.729981,-8.199041],[113.729369,-8.198954],[113.729042,-8.198888],[113.728945,-8.198849],[113.728797,-8.198895],[113.728706,-8.198953],[113.728563,-8.199028],[113.728363,-8.199086],[113.728209,-8.199122],[113.728164,-8.199167],[113.728153,-8.199225],[113.728137,-8.199435],[113.728137,-8.199458],[113.727954,-8.199442],[113.727765,-8.199409],[113.727628,-8.19941],[113.727537,-8.199388],[113.727533,-8.199639],[113.727528,-8.199753],[113.727517,-8.19981],[113.727414,-8.199816],[113.727242,-8.199823],[113.727031,-8.199825],[113.726991,-8.199813],[113.726979,-8.199745],[113.726967,-8.199648],[113.726966,-8.199569],[113.72677,-8.19963],[113.72639,-8.19975],[113.72627,-8.19985],[113.726253,-8.199838],[113.726102,-8.199736],[113.725969,-8.199646],[113.725925,-8.199513],[113.725872,-8.199274],[113.725791,-8.199166],[113.725694,-8.199167],[113.725585,-8.199128],[113.725527,-8.198997],[113.725497,-8.198838],[113.725434,-8.19881],[113.725349,-8.198925],[113.725258,-8.198908],[113.725183,-8.198887],[113.725166,-8.198892],[113.725092,-8.198881],[113.724972,-8.198864],[113.72492,-8.198905],[113.724784,-8.19898],[113.724692,-8.198975],[113.724543,-8.198901],[113.724446,-8.198896],[113.724372,-8.198943],[113.724395,-8.199016],[113.724367,-8.199096],[113.724299,-8.199142],[113.724225,-8.19916],[113.724133,-8.199155],[113.724036,-8.199138],[113.72395,-8.199093],[113.723938,-8.199048],[113.723915,-8.199003],[113.723829,-8.198963],[113.723766,-8.198952],[113.723754,-8.198952],[113.723754,-8.198856],[113.723741,-8.198719],[113.723729,-8.198605],[113.723728,-8.198497],[113.723727,-8.19844],[113.723721,-8.198269],[113.723721,-8.198189],[113.72372,-8.198115],[113.723702,-8.198041],[113.723731,-8.197978],[113.723793,-8.197893],[113.723867,-8.197818],[113.723958,-8.197778],[113.724003,-8.19772],[113.723986,-8.197686],[113.723911,-8.19763],[113.723865,-8.197596],[113.72379,-8.197488],[113.723715,-8.19738],[113.723686,-8.197261],[113.723617,-8.197176],[113.723588,-8.197125],[113.723576,-8.197074],[113.723576,-8.197073],[113.72357,-8.197011],[113.723569,-8.196875],[113.723596,-8.196732],[113.723601,-8.196561],[113.72364,-8.196413],[113.723639,-8.196236],[113.723638,-8.196121],[113.7236,-8.19611],[113.723564,-8.1961],[113.723634,-8.195887],[113.723716,-8.195636],[113.723756,-8.195357],[113.723797,-8.195176],[113.723826,-8.195132],[113.723849,-8.195098],[113.723907,-8.195009],[113.723976,-8.194841],[113.724044,-8.194535],[113.724084,-8.194368],[113.724125,-8.194159],[113.724068,-8.194034],[113.723869,-8.193437],[113.723993,-8.193214],[113.723978,-8.193103],[113.723977,-8.192964],[113.72399,-8.192755],[113.723989,-8.192616],[113.724359,-8.19164],[113.7244,-8.191515],[113.724427,-8.191334],[113.724481,-8.191125],[113.724522,-8.191041],[113.724674,-8.190706],[113.724714,-8.190553],[113.724769,-8.190427],[113.724727,-8.190303],[113.724782,-8.190177],[113.724892,-8.190009],[113.724892,-8.190006],[113.724892,-8.189982],[113.724515,-8.189942],[113.724333,-8.189916],[113.724263,-8.189861],[113.724165,-8.189861],[113.724111,-8.190056],[113.723776,-8.190003],[113.723858,-8.189836],[113.723467,-8.189838],[113.723373,-8.189787],[113.723215,-8.189701],[113.723107,-8.189658],[113.723005,-8.189619],[113.722795,-8.189565],[113.722604,-8.189566],[113.7226,-8.18953],[113.722595,-8.189518],[113.722363,-8.18954],[113.722081,-8.189542],[113.722,-8.189542],[113.721679,-8.189558],[113.721497,-8.189476],[113.721343,-8.189408],[113.721231,-8.189353],[113.721077,-8.189284],[113.720923,-8.189216],[113.720881,-8.189216],[113.720881,-8.189214],[113.720894,-8.189049],[113.720907,-8.18891],[113.720906,-8.188813],[113.720883,-8.188817],[113.720909,-8.188692],[113.720919,-8.188641],[113.720398,-8.188722],[113.719989,-8.188891],[113.719923,-8.188911],[113.72002,-8.189],[113.71994,-8.18904],[113.71981,-8.18914],[113.7196,-8.18942],[113.71897,-8.19017],[113.7185,-8.19054],[113.71824,-8.19066],[113.71796,-8.19075],[113.7176,-8.19097],[113.71716,-8.19118],[113.7163,-8.19158],[113.71623,-8.19151],[113.716214,-8.191504],[113.716173,-8.191542],[113.715974,-8.191727],[113.715625,-8.192046],[113.715377,-8.19226],[113.715219,-8.192396],[113.71523,-8.192399],[113.715185,-8.192479],[113.715073,-8.192592],[113.71488,-8.192594],[113.714664,-8.192595],[113.714404,-8.192597],[113.714245,-8.192632],[113.714098,-8.192723],[113.714076,-8.192836],[113.714021,-8.192984],[113.713782,-8.192997],[113.713533,-8.19301],[113.713363,-8.193056],[113.713228,-8.19317],[113.713203,-8.193226],[113.71319,-8.193255],[113.713183,-8.193272],[113.713026,-8.193465],[113.712936,-8.193579],[113.712891,-8.193715],[113.712893,-8.193941],[113.712934,-8.19404],[113.712939,-8.194053],[113.712871,-8.19411],[113.712792,-8.194212],[113.712737,-8.194439],[113.712682,-8.194654],[113.712627,-8.194835],[113.71255,-8.19494],[113.712482,-8.195033],[113.712469,-8.195051],[113.712403,-8.195334],[113.712371,-8.195628],[113.712305,-8.19577],[113.71233,-8.19577],[113.7123,-8.19613],[113.712069,-8.196274],[113.71215,-8.196432],[113.71212,-8.196453],[113.711901,-8.196614],[113.711787,-8.196513],[113.711708,-8.196593],[113.711584,-8.196628],[113.711471,-8.196708],[113.711279,-8.196901],[113.71102,-8.197117],[113.710911,-8.197215],[113.711055,-8.19723],[113.712188,-8.197473],[113.71219,-8.197526],[113.712759,-8.197648],[113.713253,-8.197749],[113.71335,-8.197768],[113.713308,-8.198334],[113.713378,-8.198548],[113.713718,-8.198614],[113.713708,-8.198798],[113.713668,-8.199507],[113.71348,-8.200209],[113.713404,-8.200684],[113.712768,-8.200575],[113.71261,-8.200791],[113.712487,-8.200995],[113.712251,-8.201291],[113.712206,-8.201426],[113.71213,-8.201924],[113.712007,-8.20214],[113.711816,-8.202424],[113.711758,-8.202439],[113.711538,-8.202499],[113.71142,-8.20255],[113.71104,-8.20254],[113.71063,-8.20247],[113.71005,-8.2023],[113.70956,-8.20223],[113.70924,-8.2022],[113.709076,-8.202138],[113.709027,-8.202611],[113.709006,-8.202815],[113.708774,-8.203811],[113.707924,-8.20384],[113.707754,-8.203864],[113.707663,-8.204087],[113.70762,-8.204192],[113.707075,-8.204173],[113.706588,-8.204256],[113.706203,-8.204303],[113.705794,-8.204238],[113.705295,-8.204253],[113.705193,-8.204254],[113.705038,-8.204786],[113.704577,-8.205501],[113.704382,-8.205729],[113.704138,-8.206012],[113.703445,-8.205791],[113.703093,-8.205737],[113.703089,-8.205714],[113.703002,-8.205715],[113.702836,-8.206462],[113.702826,-8.206507],[113.702557,-8.207285],[113.702403,-8.207731],[113.70145,-8.207647],[113.700599,-8.207596],[113.700214,-8.207779],[113.699863,-8.207855],[113.699784,-8.207872],[113.699375,-8.207796],[113.699158,-8.207571],[113.698884,-8.207325],[113.6988,-8.20727],[113.698742,-8.207232],[113.69839,-8.2073],[113.698,-8.207358],[113.69758,-8.20742],[113.69749,-8.20735],[113.697436,-8.207409],[113.697391,-8.207396],[113.696989,-8.207281],[113.696353,-8.207116],[113.695818,-8.206905],[113.69581,-8.206917],[113.694958,-8.20823],[113.694853,-8.208391],[113.694483,-8.208993],[113.694453,-8.20898],[113.693777,-8.208681],[113.693603,-8.208601],[113.693584,-8.208592],[113.692963,-8.209026],[113.692808,-8.209189],[113.692718,-8.209282],[113.691837,-8.210209],[113.691669,-8.210594],[113.691569,-8.210888],[113.691625,-8.210892],[113.69139,-8.211274],[113.691004,-8.211163],[113.690949,-8.211424],[113.690902,-8.211448],[113.690338,-8.211733],[113.689579,-8.21184],[113.689471,-8.211865],[113.688945,-8.211991],[113.688265,-8.212108],[113.687584,-8.212023],[113.687464,-8.212792],[113.687433,-8.213165],[113.687368,-8.21364],[113.687369,-8.213835],[113.687369,-8.213871],[113.686882,-8.213915],[113.686428,-8.213918],[113.686154,-8.213884],[113.685985,-8.213864],[113.6856,-8.2139],[113.685101,-8.213949],[113.684845,-8.214013],[113.684727,-8.214042],[113.684528,-8.214101],[113.684542,-8.214148],[113.68456,-8.21421],[113.684588,-8.214301],[113.683997,-8.216235],[113.68396,-8.21627],[113.68379,-8.21653],[113.683728,-8.21676],[113.683711,-8.216823],[113.683734,-8.216832],[113.684214,-8.217018],[113.685021,-8.217238],[113.685237,-8.217248],[113.685233,-8.217269],[113.685463,-8.217122],[113.685814,-8.217097],[113.685862,-8.217402],[113.685971,-8.217451],[113.685987,-8.217458],[113.686315,-8.217286],[113.68644,-8.216945],[113.686448,-8.216924],[113.686709,-8.216877],[113.687004,-8.216852],[113.68719,-8.216832],[113.68723,-8.21679],[113.687241,-8.216776],[113.68745,-8.21652],[113.68758,-8.21618],[113.6879,-8.21547],[113.68807,-8.21515],[113.68814,-8.21506],[113.68825,-8.21493],[113.688908,-8.214489],[113.6891,-8.21436],[113.68931,-8.21427],[113.68965,-8.21425],[113.69,-8.21427],[113.69022,-8.21424],[113.69051,-8.21405],[113.69093,-8.21379],[113.691225,-8.213742],[113.69142,-8.21371],[113.69171,-8.21366],[113.69201,-8.21359],[113.69221,-8.21344],[113.692295,-8.213379],[113.69267,-8.21311],[113.69274,-8.21306],[113.692836,-8.212977],[113.69289,-8.21293],[113.6931,-8.21265],[113.69322,-8.21242],[113.69336,-8.21226],[113.69376,-8.21206],[113.69404,-8.21194],[113.69452,-8.21175],[113.69474,-8.21163],[113.695106,-8.211461],[113.69539,-8.21133],[113.69685,-8.21107],[113.696881,-8.211065],[113.696969,-8.210931],[113.697218,-8.210918],[113.697398,-8.210702],[113.697493,-8.210603],[113.697691,-8.210395],[113.697994,-8.210157],[113.697996,-8.210156],[113.698233,-8.210064],[113.69871,-8.210049],[113.699163,-8.210046],[113.699492,-8.210078],[113.699558,-8.21009],[113.699901,-8.210154],[113.700243,-8.210333],[113.700585,-8.210579],[113.701291,-8.21097],[113.701939,-8.211282],[113.702519,-8.211425],[113.703075,-8.211523],[113.70378,-8.211688],[113.704382,-8.211808],[113.704507,-8.21187],[113.704507,-8.21183],[113.705518,-8.212027],[113.70621,-8.212146],[113.706664,-8.212166],[113.706989,-8.212178],[113.707436,-8.212195],[113.708037,-8.212145],[113.709817,-8.212088],[113.710083,-8.212086],[113.710123,-8.212086],[113.710167,-8.212105],[113.710328,-8.212175],[113.711556,-8.212517],[113.712771,-8.212712],[113.713236,-8.212817],[113.71336,-8.21282],[113.71347,-8.21279],[113.713493,-8.212768],[113.713627,-8.212642],[113.713777,-8.212321],[113.714045,-8.211664],[113.71428,-8.21112],[113.71447,-8.21078],[113.714672,-8.210383],[113.71484,-8.210088],[113.714892,-8.210046],[113.71494,-8.20995],[113.714992,-8.209952],[113.715031,-8.209872],[113.715074,-8.209836],[113.715099,-8.209815],[113.715212,-8.209746],[113.715371,-8.209734],[113.716166,-8.209921],[113.716633,-8.21002],[113.717768,-8.21026],[113.717896,-8.21032],[113.718086,-8.210228],[113.71829,-8.21013],[113.718385,-8.210084],[113.718819,-8.209688],[113.719314,-8.209154],[113.719776,-8.208755],[113.719965,-8.208647],[113.719957,-8.208573],[113.720341,-8.208344],[113.720645,-8.208094],[113.720997,-8.20808],[113.721586,-8.208008],[113.721983,-8.207926],[113.722332,-8.20779],[113.722367,-8.207777],[113.722386,-8.207762],[113.72274,-8.207492],[113.723056,-8.20723],[113.723417,-8.207001],[113.723449,-8.207001],[113.723519,-8.207001],[113.724211,-8.207064],[113.725051,-8.207171],[113.72565,-8.207245],[113.725868,-8.207272],[113.726175,-8.20731],[113.727401,-8.207392],[113.727598,-8.207406],[113.728161,-8.207444],[113.728524,-8.207396],[113.728541,-8.207423],[113.728597,-8.207508],[113.72864,-8.20749],[113.7288,-8.20754],[113.728887,-8.207569],[113.73071,-8.20818],[113.73116,-8.2084],[113.73208,-8.20856],[113.73211,-8.20849],[113.73242,-8.20805],[113.73257,-8.20789],[113.73263,-8.20786],[113.73276,-8.20766],[113.73287,-8.20768],[113.73307,-8.20762],[113.73318,-8.20754],[113.73325,-8.20742],[113.73361,-8.20709],[113.73379,-8.20701],[113.73385,-8.20698],[113.73386,-8.20704],[113.73418,-8.206789],[113.734236,-8.206745],[113.734469,-8.206843],[113.734598,-8.206868],[113.734701,-8.206725],[113.734699,-8.206455],[113.734677,-8.206387],[113.73471,-8.20636],[113.734726,-8.206347],[113.734606,-8.206082],[113.734616,-8.205632],[113.734807,-8.205193],[113.734971,-8.204664],[113.735253,-8.204275],[113.735444,-8.203888],[113.735674,-8.203577],[113.73584,-8.203203],[113.73585,-8.202829],[113.735874,-8.202494],[113.735782,-8.202276],[113.735664,-8.202071],[113.735629,-8.201898],[113.735584,-8.201672],[113.73571,-8.201513],[113.735748,-8.201465],[113.735633,-8.201286],[113.735618,-8.200951],[113.735616,-8.200681],[113.735727,-8.200455],[113.73571,-8.200391],[113.735781,-8.200319],[113.735702,-8.200023],[113.735506,-8.199767],[113.735389,-8.199652],[113.735298,-8.199485],[113.735257,-8.199279],[113.735205,-8.199177],[113.735082,-8.199117],[113.735049,-8.199101],[113.734895,-8.199218],[113.734806,-8.199386],[113.734652,-8.199528],[113.734554,-8.199599],[113.734484,-8.199588],[113.734368,-8.199685],[113.734046,-8.19979],[113.733931,-8.199807],[113.733785,-8.199829],[113.733775,-8.19983],[113.733671,-8.199831],[113.733555,-8.199832],[113.733552,-8.19983],[113.73336,-8.199692],[113.733283,-8.199519],[113.73326,-8.199518],[113.733294,-8.199409],[113.733279,-8.199177],[113.733085,-8.19914],[113.732334,-8.198952],[113.73183,-8.198826],[113.73091,-8.198536],[113.730418,-8.198411],[113.73001,-8.198318]]]]}},{"type":"Feature","properties":{"country_code":"id","country":"Indonesia","province_code":"id35","province":"Jawa Timur","regency_code":"id3509","regency":"Jember","district_code":"id3509720","district":"Sumbersari","village_code":"id3509720005","village":"Sumbersari","source":"HDX-BPS-2020","date":"2019-12-20","valid_on":"2020-04-01"},"geometry":{"type":"MultiPolygon","coordinates":[[[[113.732346,-8.16418],[113.732216,-8.164181],[113.73204,-8.164182],[113.731873,-8.164128],[113.731715,-8.164064],[113.731558,-8.164019],[113.73142,-8.16402],[113.7314,-8.16402],[113.731252,-8.164021],[113.731159,-8.16404],[113.731011,-8.16405],[113.730817,-8.164052],[113.73065,-8.16408],[113.730474,-8.1641],[113.730317,-8.164092],[113.730039,-8.164066],[113.729844,-8.164031],[113.729666,-8.163978],[113.72963,-8.163967],[113.729482,-8.163922],[113.729404,-8.163902],[113.729305,-8.163877],[113.729082,-8.163796],[113.728897,-8.163732],[113.728544,-8.16367],[113.72834,-8.163635],[113.727913,-8.163508],[113.727626,-8.163445],[113.727412,-8.163392],[113.727366,-8.163401],[113.72736,-8.163402],[113.72704,-8.16345],[113.72692,-8.16339],[113.72623,-8.16323],[113.72602,-8.16317],[113.72566,-8.16305],[113.72535,-8.16291],[113.72451,-8.16291],[113.72425,-8.16285],[113.724079,-8.162807],[113.72405,-8.1628],[113.724022,-8.16278],[113.724006,-8.16275],[113.724005,-8.162749],[113.723942,-8.16263],[113.723886,-8.162548],[113.72392,-8.162545],[113.723897,-8.16245],[113.724114,-8.162435],[113.724439,-8.162391],[113.724524,-8.162312],[113.724588,-8.162257],[113.724662,-8.162201],[113.724587,-8.162109],[113.724466,-8.162027],[113.724382,-8.161944],[113.724326,-8.161917],[113.724205,-8.161825],[113.724103,-8.161761],[113.72401,-8.161725],[113.723889,-8.161698],[113.723796,-8.161643],[113.723778,-8.161727],[113.723751,-8.161838],[113.723715,-8.161976],[113.723662,-8.162057],[113.723585,-8.161913],[113.723472,-8.161673],[113.723332,-8.16149],[113.723283,-8.16143],[113.72322,-8.161352],[113.723034,-8.161233],[113.722774,-8.161133],[113.722226,-8.160943],[113.721687,-8.160716],[113.721343,-8.160589],[113.721545,-8.160265],[113.720904,-8.160047],[113.721051,-8.159779],[113.720713,-8.159555],[113.720679,-8.159532],[113.720386,-8.160106],[113.720355,-8.160096],[113.718631,-8.159509],[113.718161,-8.159366],[113.717896,-8.159285],[113.71786,-8.159274],[113.717382,-8.15913],[113.71722,-8.159081],[113.716977,-8.159008],[113.71641,-8.158837],[113.716394,-8.158832],[113.716412,-8.158748],[113.716402,-8.158745],[113.715087,-8.158256],[113.714703,-8.158114],[113.714639,-8.158267],[113.714635,-8.158265],[113.71358,-8.157775],[113.713551,-8.157761],[113.713578,-8.157632],[113.713411,-8.157467],[113.713141,-8.157321],[113.712797,-8.157231],[113.712195,-8.157061],[113.71218,-8.15708],[113.71207,-8.15734],[113.71202,-8.15752],[113.71196,-8.15772],[113.71193,-8.15807],[113.71191,-8.15831],[113.711906,-8.158495],[113.711924,-8.15858],[113.711956,-8.15873],[113.712049,-8.159209],[113.712119,-8.15952],[113.712205,-8.159906],[113.712284,-8.160424],[113.712307,-8.160518],[113.7124,-8.160903],[113.712451,-8.161068],[113.712451,-8.16107],[113.712515,-8.161278],[113.71245,-8.161571],[113.712255,-8.16176],[113.71197,-8.161874],[113.711843,-8.16187],[113.71173,-8.16194],[113.711369,-8.16211],[113.71124,-8.16217],[113.711211,-8.162193],[113.71095,-8.1624],[113.71048,-8.16294],[113.71019,-8.16327],[113.710023,-8.163367],[113.70988,-8.16345],[113.709569,-8.163603],[113.70931,-8.16373],[113.70866,-8.164],[113.708243,-8.164141],[113.70804,-8.16421],[113.70777,-8.16432],[113.707695,-8.164395],[113.707638,-8.164553],[113.707635,-8.164563],[113.707683,-8.164817],[113.707693,-8.164873],[113.707794,-8.16507],[113.707863,-8.165225],[113.707894,-8.165295],[113.70774,-8.165536],[113.707561,-8.165782],[113.707544,-8.165805],[113.707419,-8.166088],[113.707301,-8.166326],[113.707299,-8.166331],[113.707279,-8.166371],[113.707238,-8.166597],[113.707231,-8.166772],[113.707228,-8.166839],[113.707226,-8.166893],[113.7072,-8.167288],[113.70716,-8.167697],[113.70711,-8.167832],[113.707049,-8.167994],[113.706867,-8.168235],[113.706705,-8.168279],[113.70664,-8.16837],[113.706519,-8.168458],[113.70631,-8.16861],[113.70588,-8.16878],[113.70587,-8.16879],[113.70569,-8.16897],[113.70566,-8.16915],[113.70577,-8.16939],[113.70605,-8.16978],[113.70633,-8.17011],[113.70657,-8.1703],[113.70676,-8.17034],[113.706819,-8.170335],[113.70719,-8.1703],[113.707371,-8.170288],[113.70749,-8.17028],[113.707726,-8.17038],[113.70775,-8.17039],[113.70783,-8.170551],[113.70788,-8.17065],[113.70792,-8.17094],[113.70779,-8.1712],[113.70751,-8.17148],[113.70718,-8.17171],[113.70685,-8.17176],[113.706786,-8.171754],[113.706677,-8.171745],[113.706463,-8.171544],[113.706095,-8.1714],[113.705824,-8.171346],[113.705702,-8.171386],[113.705719,-8.171404],[113.705565,-8.171455],[113.705464,-8.171573],[113.705381,-8.171709],[113.705386,-8.171796],[113.70538,-8.171817],[113.70531,-8.17204],[113.705311,-8.17205],[113.705352,-8.1725],[113.70536,-8.17259],[113.70549,-8.17288],[113.70574,-8.17314],[113.70615,-8.17336],[113.706262,-8.173415],[113.70645,-8.173506],[113.70656,-8.17356],[113.7069,-8.17376],[113.70705,-8.17399],[113.70701,-8.17432],[113.706882,-8.174657],[113.70677,-8.17495],[113.706579,-8.17535],[113.706559,-8.175391],[113.70644,-8.17564],[113.706176,-8.17625],[113.70615,-8.17631],[113.70579,-8.17663],[113.705768,-8.176644],[113.70521,-8.17701],[113.705013,-8.177141],[113.70482,-8.17727],[113.70468,-8.177324],[113.704668,-8.177329],[113.704642,-8.178254],[113.704866,-8.178244],[113.705388,-8.178266],[113.705682,-8.178279],[113.706017,-8.178343],[113.706533,-8.178547],[113.707099,-8.17877],[113.709204,-8.179599],[113.709242,-8.179615],[113.710225,-8.180002],[113.710958,-8.180291],[113.711835,-8.180637],[113.711973,-8.180691],[113.712724,-8.180987],[113.713713,-8.181377],[113.714268,-8.181596],[113.714766,-8.181792],[113.715207,-8.181966],[113.715215,-8.181947],[113.71598,-8.182261],[113.71649,-8.18247],[113.717046,-8.182698],[113.717898,-8.183047],[113.718003,-8.183105],[113.718381,-8.18331],[113.719415,-8.183545],[113.71942,-8.18354],[113.719461,-8.183514],[113.71974,-8.18334],[113.7199,-8.18324],[113.720382,-8.182901],[113.720409,-8.182882],[113.720671,-8.182959],[113.721075,-8.18279],[113.721464,-8.182537],[113.722006,-8.182269],[113.722019,-8.182144],[113.721892,-8.181894],[113.721784,-8.181712],[113.721836,-8.181657],[113.72186,-8.181632],[113.721898,-8.18164],[113.721965,-8.181655],[113.722086,-8.181681],[113.722131,-8.18169],[113.722508,-8.181791],[113.722959,-8.181797],[113.723007,-8.181816],[113.723101,-8.181852],[113.723438,-8.181756],[113.72371,-8.181586],[113.723897,-8.181463],[113.724141,-8.181396],[113.724432,-8.181328],[113.724873,-8.18125],[113.72522,-8.181201],[113.725321,-8.181201],[113.725371,-8.1812],[113.725512,-8.181293],[113.72583,-8.181309],[113.725832,-8.18131],[113.725964,-8.181309],[113.726134,-8.180796],[113.726139,-8.180783],[113.727173,-8.18087],[113.727174,-8.180833],[113.727181,-8.180617],[113.727168,-8.180195],[113.727009,-8.180178],[113.726829,-8.180085],[113.726789,-8.179646],[113.726743,-8.179385],[113.72673,-8.179309],[113.726569,-8.179113],[113.726436,-8.178964],[113.726331,-8.178835],[113.726247,-8.178731],[113.726213,-8.178622],[113.726189,-8.178545],[113.726137,-8.178452],[113.726018,-8.178237],[113.725818,-8.177891],[113.72577,-8.177841],[113.72577,-8.17782],[113.725746,-8.17771],[113.725584,-8.176974],[113.725529,-8.176882],[113.725416,-8.176855],[113.72533,-8.176769],[113.725303,-8.176743],[113.725302,-8.176612],[113.72531,-8.176471],[113.725356,-8.176265],[113.725354,-8.17605],[113.725394,-8.175916],[113.72518,-8.17543],[113.72486,-8.1749],[113.724787,-8.174811],[113.72448,-8.17444],[113.724366,-8.174161],[113.724304,-8.174011],[113.724175,-8.173941],[113.72392,-8.173803],[113.723769,-8.173672],[113.723513,-8.173431],[113.723333,-8.173235],[113.723211,-8.173161],[113.723063,-8.173056],[113.723041,-8.173041],[113.722879,-8.172705],[113.722839,-8.172368],[113.722809,-8.172115],[113.722817,-8.171871],[113.722825,-8.171693],[113.722871,-8.171646],[113.722919,-8.171629],[113.723078,-8.17157],[113.7232,-8.171532],[113.723388,-8.171521],[113.723557,-8.171539],[113.723708,-8.171622],[113.723802,-8.171687],[113.723991,-8.171807],[113.724254,-8.171806],[113.724258,-8.1718],[113.724357,-8.171674],[113.724337,-8.171543],[113.724327,-8.171421],[113.724204,-8.1713],[113.724147,-8.171207],[113.724165,-8.171179],[113.72424,-8.171094],[113.724275,-8.171017],[113.724296,-8.170972],[113.724142,-8.170876],[113.724116,-8.170861],[113.724106,-8.170814],[113.724163,-8.170823],[113.724275,-8.170766],[113.724406,-8.170662],[113.724641,-8.170614],[113.724649,-8.170501],[113.724648,-8.170342],[113.724742,-8.17022],[113.724958,-8.170218],[113.725011,-8.170225],[113.72497,-8.16998],[113.72487,-8.16947],[113.724922,-8.169105],[113.72494,-8.16898],[113.7251,-8.16864],[113.72535,-8.16835],[113.7256,-8.16816],[113.725643,-8.168131],[113.72572,-8.16808],[113.725734,-8.168073],[113.725771,-8.168054],[113.72638,-8.16774],[113.72668,-8.16751],[113.726698,-8.167484],[113.72697,-8.167639],[113.727225,-8.167777],[113.72747,-8.167898],[113.727667,-8.167877],[113.727808,-8.167867],[113.728044,-8.16794],[113.728157,-8.167987],[113.728327,-8.16806],[113.728458,-8.167994],[113.728589,-8.16789],[113.728673,-8.167861],[113.728805,-8.167907],[113.728965,-8.167981],[113.729036,-8.167981],[113.72905,-8.167981],[113.729343,-8.168213],[113.729473,-8.167968],[113.72951,-8.167977],[113.729717,-8.168042],[113.729887,-8.168162],[113.729992,-8.168293],[113.73002,-8.16833],[113.730077,-8.168423],[113.730172,-8.168572],[113.730219,-8.168609],[113.730342,-8.168665],[113.73037,-8.168655],[113.730536,-8.168672],[113.730539,-8.168673],[113.730698,-8.168513],[113.731025,-8.168239],[113.731212,-8.168031],[113.731369,-8.167703],[113.731358,-8.167487],[113.731226,-8.167329],[113.730989,-8.167097],[113.730942,-8.16705],[113.730866,-8.166873],[113.730921,-8.16676],[113.731052,-8.166684],[113.731193,-8.166655],[113.73125,-8.166701],[113.731486,-8.166831],[113.731579,-8.166784],[113.73163,-8.166681],[113.731635,-8.166671],[113.731634,-8.166502],[113.731633,-8.166412],[113.731632,-8.16624],[113.73164,-8.166015],[113.731704,-8.165809],[113.731723,-8.165771],[113.731796,-8.165546],[113.731861,-8.165386],[113.732029,-8.165226],[113.732197,-8.165084],[113.732197,-8.165066],[113.732271,-8.164878],[113.732298,-8.164709],[113.732316,-8.164512],[113.732333,-8.164334],[113.732346,-8.16418]]]]}},{"type":"Feature","properties":{"country_code":"id","country":"Indonesia","province_code":"id35","province":"Jawa Timur","regency_code":"id3509","regency":"Jember","district_code":"id3509720","district":"Sumbersari","village_code":"id3509720006","village":"Tegal Gede","source":"HDX-BPS-2020","date":"2019-12-20","valid_on":"2020-04-01"},"geometry":{"type":"MultiPolygon","coordinates":[[[[113.734508,-8.163419],[113.734536,-8.163362],[113.734527,-8.163358],[113.734848,-8.162805],[113.735024,-8.16234],[113.7345,-8.161952],[113.73457,-8.16186],[113.73483,-8.16153],[113.73498,-8.16133],[113.73521,-8.16104],[113.735355,-8.16068],[113.73544,-8.16047],[113.73552,-8.16031],[113.73563,-8.1601],[113.73567,-8.16003],[113.735842,-8.159744],[113.73597,-8.15953],[113.736,-8.15948],[113.73612,-8.15933],[113.736132,-8.159314],[113.73617,-8.15926],[113.73624,-8.15919],[113.73634,-8.15912],[113.73642,-8.15906],[113.73656,-8.15897],[113.73661,-8.15892],[113.73665,-8.15886],[113.73671,-8.15876],[113.736684,-8.158743],[113.736627,-8.158806],[113.73647,-8.15889],[113.736155,-8.158883],[113.735904,-8.158793],[113.735792,-8.158692],[113.735782,-8.158526],[113.735781,-8.158387],[113.735854,-8.158276],[113.735854,-8.158257],[113.735807,-8.158138],[113.735695,-8.158037],[113.73551,-8.15802],[113.735259,-8.158003],[113.735019,-8.158014],[113.734788,-8.158098],[113.734566,-8.158238],[113.734316,-8.158268],[113.734122,-8.158269],[113.733889,-8.158151],[113.733657,-8.158097],[113.733481,-8.158098],[113.733249,-8.157989],[113.733129,-8.158036],[113.732916,-8.158],[113.732934,-8.157913],[113.733086,-8.157175],[113.732994,-8.157161],[113.732873,-8.157142],[113.732678,-8.157134],[113.732705,-8.156964],[113.732847,-8.156081],[113.732911,-8.155979],[113.733114,-8.15582],[113.733334,-8.155431],[113.733443,-8.155237],[113.733526,-8.155116],[113.73358,-8.15494],[113.733589,-8.154811],[113.733643,-8.154691],[113.733643,-8.154654],[113.73379,-8.154459],[113.733915,-8.15438],[113.733903,-8.154331],[113.733956,-8.154264],[113.733954,-8.154098],[113.733962,-8.153904],[113.733849,-8.153768],[113.733875,-8.153667],[113.733868,-8.153655],[113.733747,-8.153564],[113.733644,-8.153417],[113.733717,-8.153306],[113.733865,-8.153185],[113.733891,-8.153128],[113.73392,-8.153064],[113.733817,-8.152926],[113.733807,-8.152788],[113.733862,-8.152751],[113.733908,-8.152741],[113.734,-8.152685],[113.734111,-8.152527],[113.733078,-8.151916],[113.732399,-8.151542],[113.732386,-8.151536],[113.732375,-8.151531],[113.732,-8.15136],[113.732036,-8.151221],[113.73185,-8.151158],[113.731657,-8.151063],[113.731646,-8.151086],[113.730818,-8.150574],[113.730669,-8.150492],[113.730647,-8.150478],[113.729106,-8.149497],[113.729062,-8.149474],[113.728808,-8.149342],[113.72853,-8.149233],[113.728372,-8.149178],[113.728472,-8.148956],[113.728682,-8.148465],[113.728828,-8.148197],[113.729076,-8.14777],[113.728881,-8.147707],[113.728722,-8.147579],[113.728657,-8.14745],[113.728517,-8.147294],[113.728442,-8.147304],[113.728147,-8.147444],[113.727851,-8.147456],[113.727822,-8.147327],[113.727774,-8.147096],[113.727717,-8.146875],[113.727514,-8.146607],[113.727452,-8.146626],[113.72734,-8.14666],[113.72687,-8.14675],[113.72663,-8.14687],[113.72646,-8.14702],[113.72634,-8.1473],[113.726315,-8.147621],[113.72631,-8.14768],[113.72638,-8.14814],[113.72665,-8.14895],[113.72677,-8.14935],[113.72681,-8.14973],[113.72676,-8.14992],[113.726676,-8.150034],[113.72662,-8.15011],[113.726473,-8.150156],[113.72623,-8.150024],[113.726047,-8.150004],[113.725725,-8.149846],[113.72551,-8.149645],[113.725358,-8.149411],[113.725127,-8.149249],[113.725057,-8.1492],[113.724853,-8.149084],[113.724455,-8.148937],[113.724112,-8.148897],[113.723845,-8.14893],[113.723771,-8.149109],[113.72369,-8.14914],[113.7236,-8.14937],[113.72356,-8.14984],[113.723554,-8.150172],[113.723705,-8.150404],[113.723984,-8.150551],[113.724263,-8.150645],[113.724735,-8.150717],[113.725131,-8.150714],[113.725475,-8.150808],[113.725732,-8.150934],[113.725777,-8.151169],[113.725736,-8.151382],[113.725523,-8.151419],[113.72547,-8.15148],[113.725403,-8.151531],[113.725265,-8.151546],[113.724955,-8.151601],[113.724517,-8.151689],[113.723982,-8.151821],[113.723941,-8.151831],[113.723458,-8.151953],[113.722848,-8.151935],[113.722558,-8.151777],[113.722375,-8.151608],[113.722277,-8.151363],[113.722115,-8.151193],[113.721974,-8.150949],[113.721887,-8.1508],[113.721661,-8.150652],[113.721447,-8.15059],[113.72131,-8.15061],[113.721297,-8.150612],[113.72114,-8.15075],[113.721137,-8.150752],[113.72092,-8.15093],[113.72075,-8.15129],[113.720733,-8.151393],[113.72067,-8.15178],[113.720668,-8.151895],[113.72066,-8.1523],[113.72079,-8.1526],[113.72103,-8.15283],[113.72137,-8.15292],[113.72181,-8.15303],[113.72202,-8.1531],[113.72229,-8.15325],[113.72237,-8.15343],[113.722357,-8.153475],[113.72231,-8.15363],[113.72203,-8.15394],[113.721817,-8.154187],[113.72165,-8.15438],[113.72127,-8.15482],[113.72101,-8.154979],[113.720855,-8.15499],[113.720502,-8.15496],[113.72019,-8.154845],[113.720061,-8.154632],[113.719984,-8.154462],[113.719909,-8.154262],[113.72021,-8.15397],[113.72044,-8.15378],[113.72053,-8.15351],[113.72047,-8.15332],[113.72021,-8.15319],[113.7199,-8.15318],[113.71967,-8.15322],[113.71914,-8.15345],[113.71864,-8.1537],[113.7181,-8.15379],[113.71753,-8.15398],[113.717475,-8.154012],[113.71714,-8.15421],[113.71694,-8.15443],[113.716858,-8.154571],[113.71668,-8.15488],[113.716626,-8.154995],[113.71644,-8.15539],[113.71622,-8.155677],[113.71621,-8.15569],[113.716149,-8.155721],[113.715966,-8.155695],[113.715697,-8.155505],[113.715514,-8.155314],[113.715214,-8.155305],[113.715054,-8.155392],[113.714943,-8.155616],[113.71486,-8.15564],[113.71475,-8.155838],[113.71466,-8.156],[113.71462,-8.15641],[113.71446,-8.15657],[113.714248,-8.156592],[113.714055,-8.156583],[113.713851,-8.156413],[113.713689,-8.156297],[113.713528,-8.156181],[113.713313,-8.15614],[113.713197,-8.156167],[113.713078,-8.156194],[113.712886,-8.156313],[113.712751,-8.156522],[113.71248,-8.15672],[113.712195,-8.157061],[113.712797,-8.157231],[113.713141,-8.157321],[113.713411,-8.157467],[113.713578,-8.157632],[113.713551,-8.157761],[113.71358,-8.157775],[113.714635,-8.158265],[113.714639,-8.158267],[113.714703,-8.158114],[113.715087,-8.158256],[113.716402,-8.158745],[113.716412,-8.158748],[113.716394,-8.158832],[113.71641,-8.158837],[113.716977,-8.159008],[113.71722,-8.159081],[113.717382,-8.15913],[113.71786,-8.159274],[113.717896,-8.159285],[113.718161,-8.159366],[113.718631,-8.159509],[113.720355,-8.160096],[113.720386,-8.160106],[113.720679,-8.159532],[113.720713,-8.159555],[113.721051,-8.159779],[113.720904,-8.160047],[113.721545,-8.160265],[113.721343,-8.160589],[113.721687,-8.160716],[113.722226,-8.160943],[113.722774,-8.161133],[113.723034,-8.161233],[113.72322,-8.161352],[113.723283,-8.16143],[113.723332,-8.16149],[113.723472,-8.161673],[113.723585,-8.161913],[113.723662,-8.162057],[113.723715,-8.161976],[113.723751,-8.161838],[113.723778,-8.161727],[113.723796,-8.161643],[113.723889,-8.161698],[113.72401,-8.161725],[113.724103,-8.161761],[113.724205,-8.161825],[113.724326,-8.161917],[113.724382,-8.161944],[113.724466,-8.162027],[113.724587,-8.162109],[113.724662,-8.162201],[113.724588,-8.162257],[113.724524,-8.162312],[113.724439,-8.162391],[113.724114,-8.162435],[113.723897,-8.16245],[113.72392,-8.162545],[113.723886,-8.162548],[113.723942,-8.16263],[113.724005,-8.162749],[113.724006,-8.16275],[113.724022,-8.16278],[113.72405,-8.1628],[113.724079,-8.162807],[113.72425,-8.16285],[113.72451,-8.16291],[113.72535,-8.16291],[113.72566,-8.16305],[113.72602,-8.16317],[113.72623,-8.16323],[113.72692,-8.16339],[113.72704,-8.16345],[113.72736,-8.163402],[113.727366,-8.163401],[113.727412,-8.163392],[113.727626,-8.163445],[113.727913,-8.163508],[113.72834,-8.163635],[113.728544,-8.16367],[113.728897,-8.163732],[113.729082,-8.163796],[113.729305,-8.163877],[113.729404,-8.163902],[113.729482,-8.163922],[113.72963,-8.163967],[113.729666,-8.163978],[113.729844,-8.164031],[113.730039,-8.164066],[113.730317,-8.164092],[113.730474,-8.1641],[113.73065,-8.16408],[113.730817,-8.164052],[113.731011,-8.16405],[113.731159,-8.16404],[113.731252,-8.164021],[113.7314,-8.16402],[113.73142,-8.16402],[113.731558,-8.164019],[113.731715,-8.164064],[113.731873,-8.164128],[113.73204,-8.164182],[113.732216,-8.164181],[113.732346,-8.16418],[113.732467,-8.164179],[113.732726,-8.16415],[113.732929,-8.164111],[113.733245,-8.164137],[113.733387,-8.164175],[113.733425,-8.164186],[113.733448,-8.164134],[113.733551,-8.164181],[113.733699,-8.164226],[113.733978,-8.164363],[113.73422,-8.164536],[113.734223,-8.164525],[113.734243,-8.164438],[113.734301,-8.164194],[113.734254,-8.164038],[113.734197,-8.1639],[113.734243,-8.163853],[113.734408,-8.163621],[113.734508,-8.163419]]]]}},{"type":"Feature","properties":{"country_code":"id","country":"Indonesia","province_code":"id35","province":"Jawa Timur","regency_code":"id3509","regency":"Jember","district_code":"id3509720","district":"Sumbersari","village_code":"id3509720002","village":"Wirolegi","source":"HDX-BPS-2020","date":"2019-12-20","valid_on":"2020-04-01"},"geometry":{"type":"MultiPolygon","coordinates":[[[[113.75146,-8.17034],[113.75146,-8.16983],[113.75146,-8.16938],[113.75139,-8.16881],[113.751344,-8.168423],[113.75133,-8.16831],[113.75121,-8.16773],[113.751103,-8.167546],[113.751192,-8.167252],[113.750934,-8.167254],[113.75092,-8.16723],[113.750828,-8.167032],[113.750817,-8.167008],[113.75072,-8.1668],[113.750716,-8.16677],[113.750296,-8.166681],[113.749854,-8.166635],[113.74984,-8.16665],[113.7496,-8.16686],[113.74939,-8.16698],[113.74883,-8.16708],[113.74862,-8.16712],[113.74831,-8.16721],[113.74815,-8.16721],[113.74758,-8.1671],[113.74717,-8.16708],[113.74688,-8.16723],[113.74662,-8.16735],[113.746502,-8.167373],[113.746183,-8.167436],[113.74601,-8.16747],[113.74586,-8.1675],[113.74545,-8.16754],[113.74478,-8.16758],[113.74459,-8.16771],[113.74453,-8.16774],[113.74429,-8.16786],[113.74413,-8.16794],[113.74388,-8.16797],[113.74368,-8.16796],[113.74361,-8.16795],[113.74343,-8.16796],[113.74319,-8.16806],[113.74287,-8.16828],[113.74269,-8.16849],[113.74247,-8.16886],[113.74241,-8.16904],[113.74237,-8.16914],[113.74237,-8.16937],[113.74247,-8.16982],[113.74248,-8.16999],[113.74246,-8.17009],[113.742455,-8.170118],[113.742386,-8.17017],[113.742129,-8.170468],[113.742028,-8.170778],[113.742102,-8.170904],[113.74208,-8.17103],[113.74212,-8.17123],[113.74219,-8.1714],[113.7423,-8.17165],[113.74241,-8.17184],[113.7425,-8.172],[113.74253,-8.17205],[113.74271,-8.1723],[113.74276,-8.17248],[113.74275,-8.17271],[113.74269,-8.1733],[113.742691,-8.173312],[113.74272,-8.17364],[113.742725,-8.173796],[113.74276,-8.17503],[113.74276,-8.1751],[113.74276,-8.17531],[113.74272,-8.175432],[113.742436,-8.175681],[113.742346,-8.175772],[113.742286,-8.17584],[113.742141,-8.176005],[113.741807,-8.176303],[113.74146,-8.176473],[113.741279,-8.176526],[113.74128,-8.17668],[113.741309,-8.176771],[113.74116,-8.17706],[113.74097,-8.1773],[113.740796,-8.177428],[113.74074,-8.17747],[113.740732,-8.177474],[113.740707,-8.177487],[113.740757,-8.177649],[113.740861,-8.177765],[113.741031,-8.178034],[113.741174,-8.178187],[113.74115,-8.178381],[113.741034,-8.178459],[113.74099,-8.178452],[113.740866,-8.178434],[113.740762,-8.17837],[113.740789,-8.178551],[113.740713,-8.178834],[113.740546,-8.178926],[113.740364,-8.178785],[113.740092,-8.178761],[113.740041,-8.178787],[113.740016,-8.178891],[113.739861,-8.178943],[113.73981,-8.179046],[113.739733,-8.17915],[113.739592,-8.179318],[113.739464,-8.179474],[113.739478,-8.179577],[113.739401,-8.179745],[113.739364,-8.179925],[113.739262,-8.180132],[113.73912,-8.180197],[113.738863,-8.180328],[113.738578,-8.18033],[113.73855,-8.18033],[113.738542,-8.180359],[113.73839,-8.18094],[113.73817,-8.18119],[113.737291,-8.182098],[113.737275,-8.182115],[113.737156,-8.182116],[113.736976,-8.18222],[113.736705,-8.182312],[113.736602,-8.182403],[113.736447,-8.182417],[113.736306,-8.18256],[113.736205,-8.182895],[113.736217,-8.182983],[113.73621,-8.183],[113.73611,-8.18328],[113.73594,-8.18347],[113.735789,-8.183581],[113.73575,-8.18361],[113.73554,-8.18423],[113.73538,-8.18514],[113.7354,-8.18558],[113.735407,-8.185727],[113.735128,-8.186031],[113.735103,-8.186173],[113.735078,-8.186315],[113.734821,-8.186458],[113.734775,-8.186471],[113.734498,-8.18655],[113.734502,-8.186571],[113.734539,-8.186808],[113.734451,-8.187156],[113.734491,-8.187323],[113.734595,-8.187451],[113.734583,-8.187541],[113.734609,-8.187631],[113.734546,-8.187812],[113.734598,-8.187876],[113.734599,-8.188018],[113.734574,-8.188108],[113.734421,-8.188457],[113.734306,-8.188612],[113.7341,-8.188819],[113.73413,-8.18914],[113.734133,-8.18917],[113.734142,-8.18927],[113.734145,-8.18963],[113.734148,-8.190055],[113.734073,-8.19048],[113.734025,-8.191086],[113.734019,-8.191395],[113.73365,-8.19225],[113.73287,-8.19369],[113.732715,-8.193931],[113.732689,-8.193971],[113.73247,-8.19431],[113.732,-8.19507],[113.731953,-8.195139],[113.73177,-8.19541],[113.73166,-8.19557],[113.731644,-8.195581],[113.731701,-8.19705],[113.73156,-8.197193],[113.731341,-8.19731],[113.73116,-8.19726],[113.730965,-8.197158],[113.730784,-8.197108],[113.730655,-8.197186],[113.730592,-8.197328],[113.73045,-8.197458],[113.730334,-8.197472],[113.730268,-8.197494],[113.730266,-8.197498],[113.730179,-8.197688],[113.729988,-8.198133],[113.729964,-8.198307],[113.729978,-8.198311],[113.73001,-8.198318],[113.730418,-8.198411],[113.73091,-8.198536],[113.73183,-8.198826],[113.732334,-8.198952],[113.733085,-8.19914],[113.733279,-8.199177],[113.733294,-8.199409],[113.73326,-8.199518],[113.733283,-8.199519],[113.73336,-8.199692],[113.733552,-8.19983],[113.733555,-8.199832],[113.733671,-8.199831],[113.733775,-8.19983],[113.733785,-8.199829],[113.733931,-8.199807],[113.734046,-8.19979],[113.734368,-8.199685],[113.734484,-8.199588],[113.734554,-8.199599],[113.734652,-8.199528],[113.734806,-8.199386],[113.734895,-8.199218],[113.735049,-8.199101],[113.735082,-8.199117],[113.735205,-8.199177],[113.735257,-8.199279],[113.735298,-8.199485],[113.735389,-8.199652],[113.735506,-8.199767],[113.735702,-8.200023],[113.735781,-8.200319],[113.73571,-8.200391],[113.735727,-8.200455],[113.735616,-8.200681],[113.735618,-8.200951],[113.735633,-8.201286],[113.735748,-8.201465],[113.73571,-8.201513],[113.735584,-8.201672],[113.735629,-8.201898],[113.735664,-8.202071],[113.735782,-8.202276],[113.735874,-8.202494],[113.73585,-8.202829],[113.73584,-8.203203],[113.735674,-8.203577],[113.735444,-8.203888],[113.735253,-8.204275],[113.734971,-8.204664],[113.734807,-8.205193],[113.734616,-8.205632],[113.734606,-8.206082],[113.734726,-8.206347],[113.73471,-8.20636],[113.734677,-8.206387],[113.734699,-8.206455],[113.734701,-8.206725],[113.734598,-8.206868],[113.734469,-8.206843],[113.734236,-8.206745],[113.73418,-8.206789],[113.73386,-8.20704],[113.73385,-8.20698],[113.73379,-8.20701],[113.73361,-8.20709],[113.73325,-8.20742],[113.73318,-8.20754],[113.73307,-8.20762],[113.73287,-8.20768],[113.73276,-8.20766],[113.73263,-8.20786],[113.73257,-8.20789],[113.73242,-8.20805],[113.73211,-8.20849],[113.73208,-8.20856],[113.73187,-8.20897],[113.73145,-8.20952],[113.73116,-8.20983],[113.73108,-8.20995],[113.73107,-8.21009],[113.73109,-8.21016],[113.731141,-8.21015],[113.731121,-8.210365],[113.731163,-8.21048],[113.731393,-8.210298],[113.731839,-8.210163],[113.73193,-8.21019],[113.73274,-8.21052],[113.732798,-8.210514],[113.732995,-8.210844],[113.733299,-8.211605],[113.733718,-8.21212],[113.734027,-8.212281],[113.73433,-8.212439],[113.735034,-8.212745],[113.735841,-8.212921],[113.736335,-8.212982],[113.736593,-8.212838],[113.736682,-8.212566],[113.736355,-8.212154],[113.73595,-8.21182],[113.735679,-8.211182],[113.735659,-8.211136],[113.735799,-8.210656],[113.736055,-8.210111],[113.736454,-8.209578],[113.736736,-8.209058],[113.737044,-8.208487],[113.73769,-8.207734],[113.737714,-8.207706],[113.738345,-8.207058],[113.73906,-8.20675],[113.739389,-8.206613],[113.739583,-8.206533],[113.74092,-8.206606],[113.74102,-8.20666],[113.741024,-8.206662],[113.741967,-8.206616],[113.74244,-8.206513],[113.743399,-8.206306],[113.744571,-8.205997],[113.745308,-8.205858],[113.745646,-8.205796],[113.745648,-8.205779],[113.745659,-8.205597],[113.745562,-8.20509],[113.745371,-8.204983],[113.745051,-8.204804],[113.744569,-8.204196],[113.744159,-8.203433],[113.74394,-8.202795],[113.743883,-8.202627],[113.743721,-8.202108],[113.743771,-8.202011],[113.743763,-8.201851],[113.743804,-8.201675],[113.743896,-8.201447],[113.744071,-8.201239],[113.74431,-8.20133],[113.744676,-8.201545],[113.744968,-8.201729],[113.745154,-8.201656],[113.745496,-8.201415],[113.745836,-8.201113],[113.746176,-8.200696],[113.746558,-8.200311],[113.746598,-8.200244],[113.746702,-8.200071],[113.746908,-8.199822],[113.746954,-8.199789],[113.747177,-8.199629],[113.74719,-8.19944],[113.74721,-8.19926],[113.74721,-8.19907],[113.74727,-8.19894],[113.747288,-8.198925],[113.74757,-8.19869],[113.748117,-8.198403],[113.748176,-8.198301],[113.748402,-8.19801],[113.748754,-8.197738],[113.74896,-8.197499],[113.749094,-8.197332],[113.749289,-8.19701],[113.74936,-8.196879],[113.749515,-8.196595],[113.749809,-8.196437],[113.74983,-8.19639],[113.74995,-8.19615],[113.749994,-8.196089],[113.75,-8.19608],[113.7502,-8.19573],[113.75038,-8.19541],[113.750912,-8.194789],[113.750925,-8.194587],[113.751006,-8.194359],[113.751255,-8.194233],[113.751526,-8.194221],[113.751535,-8.19422],[113.751847,-8.194166],[113.752147,-8.19404],[113.752323,-8.193884],[113.752509,-8.19381],[113.752842,-8.193849],[113.753116,-8.193837],[113.75315,-8.19378],[113.753245,-8.193461],[113.753211,-8.193153],[113.753261,-8.192832],[113.753457,-8.192685],[113.753705,-8.192702],[113.75375,-8.19266],[113.75388,-8.19264],[113.75377,-8.19243],[113.75376,-8.19214],[113.75372,-8.19182],[113.75364,-8.1913],[113.75352,-8.19057],[113.753516,-8.190541],[113.753504,-8.190459],[113.75342,-8.18988],[113.7534,-8.18962],[113.75339,-8.18937],[113.753408,-8.189121],[113.75348,-8.18815],[113.75349,-8.18804],[113.75348,-8.187995],[113.75336,-8.18746],[113.75335,-8.18716],[113.75334,-8.18672],[113.75332,-8.18621],[113.75331,-8.18601],[113.753288,-8.185983],[113.75326,-8.18595],[113.753261,-8.185915],[113.753142,-8.185909],[113.753051,-8.185832],[113.752857,-8.185782],[113.752611,-8.185796],[113.752598,-8.185784],[113.752603,-8.185679],[113.752609,-8.185552],[113.752712,-8.185397],[113.752789,-8.185306],[113.752787,-8.185113],[113.75276,-8.184946],[113.752656,-8.184805],[113.752642,-8.184676],[113.752796,-8.18452],[113.752847,-8.184407],[113.752867,-8.184363],[113.752924,-8.184236],[113.753037,-8.183785],[113.753074,-8.183591],[113.753086,-8.183424],[113.753149,-8.183269],[113.753149,-8.183265],[113.753148,-8.18305],[113.753005,-8.18291],[113.752958,-8.182873],[113.75294,-8.182859],[113.752707,-8.182886],[113.75232,-8.182901],[113.752357,-8.182721],[113.752407,-8.182463],[113.752717,-8.182345],[113.752948,-8.182202],[113.752992,-8.182102],[113.75305,-8.181969],[113.75314,-8.181879],[113.753171,-8.181832],[113.753191,-8.181802],[113.753293,-8.181646],[113.753335,-8.181603],[113.753397,-8.181435],[113.75353,-8.18107],[113.753632,-8.180913],[113.753339,-8.18077],[113.753285,-8.180734],[113.753015,-8.180553],[113.752662,-8.180381],[113.752651,-8.180375],[113.752933,-8.18],[113.753147,-8.179795],[113.753136,-8.179781],[113.75287,-8.17946],[113.75247,-8.17894],[113.75198,-8.17837],[113.751932,-8.178314],[113.751501,-8.177808],[113.7514,-8.17769],[113.75104,-8.17719],[113.75075,-8.17661],[113.750723,-8.176537],[113.75067,-8.17639],[113.75054,-8.1758],[113.75046,-8.17521],[113.75042,-8.17451],[113.75037,-8.17379],[113.75035,-8.17328],[113.75046,-8.17296],[113.750581,-8.172588],[113.750705,-8.172208],[113.75075,-8.17207],[113.75102,-8.17125],[113.75122,-8.1707],[113.75131,-8.17057],[113.75146,-8.17034]]]]}}]}